{
    "links": {
        "self": "http://www.neowsapp.com/rest/v1/neo/3781649?api_key=iIulBulltgU6a56xZRHN4H3l9WmuAYTsLGpBGhQ2"
    },
    "id": "3781649",
    "neo_reference_id": "3781649",
    "name": "(2017 RN17)",
    "designation": "2017 RN17",
    "nasa_jpl_url": "http://ssd.jpl.nasa.gov/sbdb.cgi?sstr=3781649",
    "absolute_magnitude_h": 21.7,
    "estimated_diameter": {
        "kilometers": {
            "estimated_diameter_min": 0.1214940408,
            "estimated_diameter_max": 0.2716689341
        },
        "meters": {
            "estimated_diameter_min": 121.4940407996,
            "estimated_diameter_max": 271.6689340891
        },
        "miles": {
            "estimated_diameter_min": 0.0754928736,
            "estimated_diameter_max": 0.1688071972
        },
        "feet": {
            "estimated_diameter_min": 398.6025088171,
            "estimated_diameter_max": 891.3023057169
        }
    },
    "is_potentially_hazardous_asteroid": false,
    "close_approach_data": [
        {
            "close_approach_date": "2017-08-29",
            "close_approach_date_full": "2017-Aug-29 23:08",
            "epoch_date_close_approach": 1504048080000,
            "relative_velocity": {
                "kilometers_per_second": "21.9714923219",
                "kilometers_per_hour": "79097.3723586956",
                "miles_per_hour": "49148.0311747684"
            },
            "miss_distance": {
                "astronomical": "0.3867870304",
                "lunar": "150.4601548256",
                "kilometers": "57862515.891465248",
                "miles": "35954100.1611785024"
            },
            "orbiting_body": "Earth"
        }
    ],
    "orbital_data": {
        "orbit_id": "1",
        "orbit_determination_date": "2017-09-22 20:00:03",
        "first_observation_date": "2017-09-10",
        "last_observation_date": "2017-09-20",
        "data_arc_in_days": 10,
        "observations_used": 15,
        "orbit_uncertainty": "9",
        "minimum_orbit_intersection": ".12733",
        "jupiter_tisserand_invariant": "2.936",
        "epoch_osculation": "2458009.5",
        "eccentricity": ".6996866072837828",
        "semi_major_axis": "2.626374984873901",
        "inclination": "19.82878229853766",
        "ascending_node_longitude": "230.2244436180323",
        "orbital_period": "1554.653205923544",
        "perihelion_distance": ".7887355822524849",
        "perihelion_argument": "32.40641701752401",
        "aphelion_distance": "4.464014387495318",
        "perihelion_time": "2457953.657246103855",
        "mean_anomaly": "12.93110986168117",
        "mean_motion": ".2315628968752175",
        "equinox": "J2000",
        "orbit_class": {
            "orbit_class_type": "APO",
            "orbit_class_description": "Near-Earth asteroid orbits which cross the Earth’s orbit similar to that of 1862 Apollo",
            "orbit_class_range": "a (semi-major axis) > 1.0 AU; q (perihelion) < 1.017 AU"
        }
    },
    "is_sentry_object": false
}